IRIDIUM 171             
1 43929U 19002H   24352.73429212  .00000058  00000+0  13682-4 0  9991
2 43929  86.3993 222.1464 0001787  97.3150 262.8248 14.34218100310635
IRIDIUM 170             
1 43930U 19002J   24352.90871008  .00002025  00000+0  31715-3 0  9998
2 43930  86.6113 221.8611 0002267  81.5682 278.5792 14.72267413318889
IRIDIUM 167             
1 43931U 19002K   24352.93724811  .00000305  00000+0  10199-3 0  9993
2 43931  86.3985 221.8337 0001585  88.0289 272.1088 14.34216584310663
IRIDIUM 181             
1 56726U 23068S   24352.86517375  .00000893  00000+0  25809-3 0  9999
2 56726  86.6864 284.2379 0002113  95.1580 264.9863 14.43559018 83634
IRIDIUM 177             
1 56727U 23068T   24352.89879939  .00003043  00000+0  39690-3 0  9993
2 56727  86.1982 228.1159 0002044  80.7365 279.4087 14.80242406 85551
IRIDIUM 174             
1 56728U 23068U   24352.75815885  .00002533  00000+0  32995-3 0  9993
2 56728  86.1961 228.2988 0002625 100.4173 259.7344 14.80221871 85530
IRIDIUM 178             
1 56729U 23068V   24353.15835938  .00003403  00000+0  44419-3 0  9991
2 56729  86.5780 254.2786 0002359 100.2738 259.8749 14.80245557 85591
IRIDIUM 179             
1 56730U 23068W   24353.15293031  .00003492  00000+0  45603-3 0  9999
2 56730  86.6790 260.7321 0002526  85.6790 274.4720 14.80235546 85591
